{"type": "FeatureCollection", "features": [ {"type": "Feature", "properties": {"norad_id": 66695, "name": "TRANSPORTER-15 AF", "group": "last-30-days", "lat": -41.1035202505659, "lon": -120.73631042425677, "alt_km": 517.6360139306198, "timestamp": "2025-12-20T03:42:46.119636+00:00", "meta": {"OBJECT_NAME": "TRANSPORTER-15 AF", "OBJECT_ID": "2025-276AF", "EPOCH": "2025-12-19T20:00:01.999008", "MEAN_MOTION": 15.182364, "ECCENTRICITY": 0.0001339, "INCLINATION": 97.4415, "RA_OF_ASC_NODE": 65.4956, "ARG_OF_PERICENTER": 149.3182, "MEAN_ANOMALY": 116.8824, "EPHEMERIS_TYPE": 0, "CLASSIFICATION_TYPE": "U", "NORAD_CAT_ID": 66695, "ELEMENT_SET_NO": 999, "REV_AT_EPOCH": 130, "BSTAR": -0.0024683, "MEAN_MOTION_DOT": -0.00050207, "MEAN_MOTION_DDOT": 0}, "tle": {"line1": "1 66695U 25276AF  25353.83335647 -.00050207  00000+0 -24683-2 0  9991", "line2": "2 66695  97.4415  65.4956 0001339 149.3182 116.8824 15.18236400  1307"}}, "geometry": {"type": "Point", "coordinates": [-120.73631042425677, -41.1035202505659]}}, {"type": "Feature", "properties": {"norad_id": 66696, "name": "TRANSPORTER-15 AG", "group": "last-30-days", "lat": 21.09118583162993, "lon": -111.32942022290348, "alt_km": 514.6531373777889, "timestamp": "2025-12-20T03:42:46.119646+00:00", "meta": {"OBJECT_NAME": "TRANSPORTER-15 AG", "OBJECT_ID": "2025-276AG", "EPOCH": "2025-12-19T20:00:01.999008", "MEAN_MOTION": 15.17404371, "ECCENTRICITY": 0.0002287, "INCLINATION": 97.4406, "RA_OF_ASC_NODE": 65.4657, "ARG_OF_PERICENTER": 283.6722, "MEAN_ANOMALY": 280.7059, "EPHEMERIS_TYPE": 0, "CLASSIFICATION_TYPE": "U", "NORAD_CAT_ID": 66696, "ELEMENT_SET_NO": 999, "REV_AT_EPOCH": 130, "BSTAR": -0.0026535, "MEAN_MOTION_DOT": -0.00052685, "MEAN_MOTION_DDOT": 0}, "tle": {"line1": "1 66696U 25276AG  25353.83335647 -.00052685  00000+0 -26535-2 0  9992", "line2": "2 66696  97.4406  65.4657 0002287 283.6722 280.7059 15.17404371  1305"}}, "geometry": {"type": "Point", "coordinates": [-111.32942022290348, 21.09118583162993]}}, {"type": "Feature", "properties": {"norad_id": 66697, "name": "TRANSPORTER-15 AH", "group": "last-30-days", "lat": -35.72695357160905, "lon": -119.58771981821245, "alt_km": 517.5063612393988, "timestamp": "2025-12-20T03:42:46.119659+00:00", "meta": {"OBJECT_NAME": "TRANSPORTER-15 AH", "OBJECT_ID": "2025-276AH", "EPOCH": "2025-12-19T20:00:01.999008", "MEAN_MOTION": 15.1815663, "ECCENTRICITY": 0.0001173, "INCLINATION": 97.4403, "RA_OF_ASC_NODE": 65.49, "ARG_OF_PERICENTER": 155.6116, "MEAN_ANOMALY": 105.2263, "EPHEMERIS_TYPE": 0, "CLASSIFICATION_TYPE": "U", "NORAD_CAT_ID": 66697, "ELEMENT_SET_NO": 999, "REV_AT_EPOCH": 130, "BSTAR": -0.0026431, "MEAN_MOTION_DOT": -0.00053611, "MEAN_MOTION_DDOT": 0}, "tle": {"line1": "1 66697U 25276AH  25353.83335647 -.00053611  00000+0 -26431-2 0  9998", "line2": "2 66697  97.4403  65.4900 0001173 155.6116 105.2263 15.18156630  1303"}}, "geometry": {"type": "Point", "coordinates": [-119.58771981821245, -35.72695357160905]}}, {"type": "Feature", "properties": {"norad_id": 66698, "name": "TRANSPORTER-15 AJ", "group": "last-30-days", "lat": 25.178819412687947, "lon": -110.69697293633695, "alt_km": 514.1613822593063, "timestamp": "2025-12-20T03:42:46.119669+00:00", "meta": {"OBJECT_NAME": "TRANSPORTER-15 AJ", "OBJECT_ID": "2025-276AJ", "EPOCH": "2025-12-19T20:00:01.999008", "MEAN_MOTION": 15.17319112, "ECCENTRICITY": 0.0002518, "INCLINATION": 97.4407, "RA_OF_ASC_NODE": 65.465, "ARG_OF_PERICENTER": 272.5294, "MEAN_ANOMALY": 287.8264, "EPHEMERIS_TYPE": 0, "CLASSIFICATION_TYPE": "U", "NORAD_CAT_ID": 66698, "ELEMENT_SET_NO": 999, "REV_AT_EPOCH": 130, "BSTAR": -0.00265, "MEAN_MOTION_DOT": -0.00052489, "MEAN_MOTION_DDOT": 0}, "tle": {"line1": "1 66698U 25276AJ  25353.83335647 -.00052489  00000+0 -26500-2 0  9998", "line2": "2 66698  97.4407  65.4650 0002518 272.5294 287.8264 15.17319112  1303"}}, "geometry": {"type": "Point", "coordinates": [-110.69697293633695, 25.178819412687947]}}, {"type": "Feature", "properties": {"norad_id": 66699, "name": "TRANSPORTER-15 AK", "group": "last-30-days", "lat": 24.382273138075544, "lon": -110.81876421307182, "alt_km": 514.1516715769976, "timestamp": "2025-12-20T03:42:46.119679+00:00", "meta": {"OBJECT_NAME": "TRANSPORTER-15 AK", "OBJECT_ID": "2025-276AK", "EPOCH": "2025-12-19T20:00:01.999008", "MEAN_MOTION": 15.17368221, "ECCENTRICITY": 0.000283, "INCLINATION": 97.4421, "RA_OF_ASC_NODE": 65.469, "ARG_OF_PERICENTER": 270.5753, "MEAN_ANOMALY": 290.5311, "EPHEMERIS_TYPE": 0, "CLASSIFICATION_TYPE": "U", "NORAD_CAT_ID": 66699, "ELEMENT_SET_NO": 999, "REV_AT_EPOCH": 130, "BSTAR": -0.0025993, "MEAN_MOTION_DOT": -0.00051568, "MEAN_MOTION_DDOT": 0}, "tle": {"line1": "1 66699U 25276AK  25353.83335647 -.00051568  00000+0 -25993-2 0  9991", "line2": "2 66699  97.4421  65.4690 0002830 270.5753 290.5311 15.17368221  1308"}}, "geometry": {"type": "Point", "coordinates": [-110.81876421307182, 24.382273138075544]}}, {"type": "Feature", "properties": {"norad_id": 66700, "name": "TRANSPORTER-15 AL", "group": "last-30-days", "lat": -38.54490745056338, "lon": -120.16260896504343, "alt_km": 517.3144322444532, "timestamp": "2025-12-20T03:42:46.119691+00:00", "meta": {"OBJECT_NAME": "TRANSPORTER-15 AL", "OBJECT_ID": "2025-276AL", "EPOCH": "2025-12-19T20:00:01.999008", "MEAN_MOTION": 15.18194496, "ECCENTRICITY": 0.0001555, "INCLINATION": 97.4435, "RA_OF_ASC_NODE": 65.5002, "ARG_OF_PERICENTER": 164.0696, "MEAN_ANOMALY": 99.5805, "EPHEMERIS_TYPE": 0, "CLASSIFICATION_TYPE": "U", "NORAD_CAT_ID": 66700, "ELEMENT_SET_NO": 999, "REV_AT_EPOCH": 130, "BSTAR": -0.0025237, "MEAN_MOTION_DOT": -0.00051264, "MEAN_MOTION_DDOT": 0}, "tle": {"line1": "1 66700U 25276AL  25353.83335647 -.00051264  00000+0 -25237-2 0  9998", "line2": "2 66700  97.4435  65.5002 0001555 164.0696  99.5805 15.18194496  1307"}}, "geometry": {"type": "Point", "coordinates": [-120.16260896504343, -38.54490745056338]}}, {"type": "Feature", "properties": {"norad_id": 66701, "name": "TRANSPORTER-15 AM", "group": "last-30-days", "lat": 24.502728686608457, "lon": -110.79387423006727, "alt_km": 514.0968439073358, "timestamp": "2025-12-20T03:42:46.119703+00:00", "meta": {"OBJECT_NAME": "TRANSPORTER-15 AM", "OBJECT_ID": "2025-276AM", "EPOCH": "2025-12-19T20:00:01.999008", "MEAN_MOTION": 15.17361002, "ECCENTRICITY": 0.0002739, "INCLINATION": 97.4438, "RA_OF_ASC_NODE": 65.474, "ARG_OF_PERICENTER": 269.4071, "MEAN_ANOMALY": 291.5852, "EPHEMERIS_TYPE": 0, "CLASSIFICATION_TYPE": "U", "NORAD_CAT_ID": 66701, "ELEMENT_SET_NO": 999, "REV_AT_EPOCH": 130, "BSTAR": -0.0026, "MEAN_MOTION_DOT": -0.00051569, "MEAN_MOTION_DDOT": 0}, "tle": {"line1": "1 66701U 25276AM  25353.83335647 -.00051569  00000+0 -26000-2 0  9996", "line2": "2 66701  97.4438  65.4740 0002739 269.4071 291.5852 15.17361002  1305"}}, "geometry": {"type": "Point", "coordinates": [-110.79387423006727, 24.502728686608457]}}, {"type": "Feature", "properties": {"norad_id": 66702, "name": "TRANSPORTER-15 AN", "group": "last-30-days", "lat": 23.601830301488405, "lon": -110.94328399472548, "alt_km": 514.3728664643013, "timestamp": "2025-12-20T03:42:46.119714+00:00", "meta": {"OBJECT_NAME": "TRANSPORTER-15 AN", "OBJECT_ID": "2025-276AN", "EPOCH": "2025-12-19T20:00:01.999008", "MEAN_MOTION": 15.17380765, "ECCENTRICITY": 0.0002634, "INCLINATION": 97.4415, "RA_OF_ASC_NODE": 65.4672, "ARG_OF_PERICENTER": 278.2908, "MEAN_ANOMALY": 283.584, "EPHEMERIS_TYPE": 0, "CLASSIFICATION_TYPE": "U", "NORAD_CAT_ID": 66702, "ELEMENT_SET_NO": 999, "REV_AT_EPOCH": 130, "BSTAR": -0.0024604, "MEAN_MOTION_DOT": -0.0004885, "MEAN_MOTION_DDOT": 0}, "tle": {"line1": "1 66702U 25276AN  25353.83335647 -.00048850  00000+0 -24604-2 0  9994", "line2": "2 66702  97.4415  65.4672 0002634 278.2908 283.5840 15.17380765  1301"}}, "geometry": {"type": "Point", "coordinates": [-110.94328399472548, 23.601830301488405]}}, {"type": "Feature", "properties": {"norad_id": 66703, "name": "PELICAN-6", "group": "last-30-days", "lat": 16.2263572346098, "lon": -112.031784145673, "alt_km": 514.7545039171337, "timestamp": "2025-12-20T03:42:46.119724+00:00", "meta": {"OBJECT_NAME": "PELICAN-6", "OBJECT_ID": "2025-276AP", "EPOCH": "2025-12-19T20:00:01.999008", "MEAN_MOTION": 15.17346694, "ECCENTRICITY": 7.06e-05, "INCLINATION": 97.4424, "RA_OF_ASC_NODE": 65.4723, "ARG_OF_PERICENTER": 259.4896, "MEAN_ANOMALY": 309.8483, "EPHEMERIS_TYPE": 0, "CLASSIFICATION_TYPE": "U", "NORAD_CAT_ID": 66703, "ELEMENT_SET_NO": 999, "REV_AT_EPOCH": 434, "BSTAR": -0.0026957, "MEAN_MOTION_DOT": -0.00053423, "MEAN_MOTION_DDOT": 0}, "tle": {"line1": "1 66703U 25276AP  25353.83335647 -.00053423  00000+0 -26957-2 0  9990", "line2": "2 66703  97.4424  65.4723 0000706 259.4896 309.8483 15.17346694  4349"}}, "geometry": {"type": "Point", "coordinates": [-112.031784145673, 16.2263572346098]}}, {"type": "Feature", "properties": {"norad_id": 66704, "name": "FLOCK 4H-1", "group": "last-30-days", "lat": -32.04842812910412, "lon": -118.89180880968361, "alt_km": 516.9771869348897, "timestamp": "2025-12-20T03:42:46.119735+00:00", "meta": {"OBJECT_NAME": "FLOCK 4H-1", "OBJECT_ID": "2025-276AQ", "EPOCH": "2025-12-19T20:00:01.999008", "MEAN_MOTION": 15.18074494, "ECCENTRICITY": 0.0001759, "INCLINATION": 97.4395, "RA_OF_ASC_NODE": 65.4846, "ARG_OF_PERICENTER": 174.7281, "MEAN_ANOMALY": 82.474, "EPHEMERIS_TYPE": 0, "CLASSIFICATION_TYPE": "U", "NORAD_CAT_ID": 66704, "ELEMENT_SET_NO": 999, "REV_AT_EPOCH": 135, "BSTAR": -0.0024634, "MEAN_MOTION_DOT": -0.00049878, "MEAN_MOTION_DDOT": 0}, "tle": {"line1": "1 66704U 25276AQ  25353.83335647 -.00049878  00000+0 -24634-2 0  9990", "line2": "2 66704  97.4395  65.4846 0001759 174.7281  82.4740 15.18074494  1354"}}, "geometry": {"type": "Point", "coordinates": [-118.89180880968361, -32.04842812910412]}}]}